NORAD_CAT_ID,OBJECT_NAME,OBJECT_TYPE,EPOCH,MEAN_MOTION,ECCENTRICITY,INCLINATION,RA_OF_ASC_NODE,ARG_OF_PERICENTER,MEAN_ANOMALY,BSTAR,MEAN_MOTION_DOT,MEAN_MOTION_DDOT,TLE_LINE0,TLE_LINE1,TLE_LINE2,SEMIMAJOR_AXIS,PERIOD,APOGEE,PERIGEE,DECAYED
51979.0,STARLINK-3656,PAYLOAD,2024-03-19 03:06:22,15.08845941,0.0001496,53.2193,33.8374,105.9728,254.1429,0.00013844,1.916e-05,0.0,0 STARLINK-3656,1 51979U 22025Z   24079.12942495  .00001916  00000-0  13844-3 0  9990,2 51979  53.2193  33.8374 0001496 105.9728 254.1429 15.08845941113395,6917.862,95.437,540.762,538.692,0.0
51979.0,STARLINK-3656,PAYLOAD,2024-03-19 06:17:08,15.0885327,0.0001353,53.2185,33.2428,104.851,255.2632,0.000201,2.914e-05,0.0,0 STARLINK-3656,1 51979U 22025Z   24079.26189977  .00002914  00000-0  20100-3 0  9995,2 51979  53.2185  33.2428 0001353 104.8510 255.2632 15.08853270113414,6917.84,95.437,540.641,538.769,0.0
51979.0,STARLINK-3656,PAYLOAD,2024-03-20 01:21:45,15.08856484,0.0001395,53.2187,29.6726,104.4091,255.7056,-1.133e-05,-4.68e-06,0.0,0 STARLINK-3656,1 51979U 22025Z   24080.05677745 -.00000468  00000-0 -11330-4 0  9999,2 51979  53.2187  29.6726 0001395 104.4091 255.7056 15.08856484113530,6917.83,95.437,540.66,538.73,0.0
51979.0,STARLINK-3656,PAYLOAD,2024-03-20 06:07:54,15.08862064,0.0001588,53.2205,28.7776,86.1721,273.9453,6.3044e-05,7.16e-06,0.0,0 STARLINK-3656,1 51979U 22025Z   24080.25549047  .00000716  00000-0  63044-4 0  9997,2 51979  53.2205  28.7776 0001588  86.1721 273.9453 15.08862064113563,6917.813,95.436,540.776,538.579,0.0
51979.0,STARLINK-3656,PAYLOAD,2024-03-21 02:47:57,15.08835853,0.0001419,53.2194,24.916,98.1128,262.0025,-0.00012716,-2.311e-05,0.0,0 STARLINK-3656,1 51979U 22025Z   24081.11663323 -.00002311  00000-0 -12716-3 0  9991,2 51979  53.2194  24.9160 0001419  98.1128 262.0025 15.08835853113696,6917.893,95.438,540.74,538.776,0.0
51979.0,STARLINK-3656,PAYLOAD,2024-03-21 05:58:43,15.08837947,0.0001434,53.2201,24.32,99.6945,260.421,-0.00011494,-2.117e-05,0.0,0 STARLINK-3656,1 51979U 22025Z   24081.24911154 -.00002117  00000-0 -11494-3 0  9999,2 51979  53.2201  24.3200 0001434  99.6945 260.4210 15.08837947112608,6917.887,95.438,540.744,538.76,0.0
51979.0,STARLINK-3656,PAYLOAD,2024-03-22 02:38:42,15.08866051,0.000135,53.2186,20.4573,107.704,252.41,0.0003276,4.933e-05,0.0,0 STARLINK-3656,1 51979U 22025Z   24082.11021242  .00004933  00000-0  32760-3 0  9991,2 51979  53.2186  20.4573 0001350 107.7040 252.4100 15.08866051113848,6917.801,95.436,540.6,538.732,0.0
51979.0,STARLINK-3656,PAYLOAD,2024-03-22 05:49:28,15.08867333,0.0001368,53.2186,19.8601,100.4132,259.7014,0.00037108,5.627e-05,0.0,0 STARLINK-3656,1 51979U 22025Z   24082.24269073  .00005627  00000-0  37108-3 0  9993,2 51979  53.2186  19.8601 0001368 100.4132 259.7014 15.08867333112750,6917.797,95.436,540.608,538.715,0.0
51979.0,STARLINK-3656,PAYLOAD,2024-03-22 20:07:58,15.08826874,0.0001349,53.2186,17.1875,86.6246,273.4901,-3.1709e-05,-7.92e-06,0.0,0 STARLINK-3656,1 51979U 22025Z   24082.83887635 -.00000792  00000-0 -31709-4 0  9990,2 51979  53.2186  17.1875 0001349  86.6246 273.4901 15.08826874113950,6917.921,95.438,540.719,538.852,0.0
51979.0,STARLINK-3656,PAYLOAD,2024-03-23 05:40:17,15.08834242,0.0001293,53.2187,15.4008,90.8082,269.3058,3.2185e-05,2.24e-06,0.0,0 STARLINK-3656,1 51979U 22025Z   24083.23631437  .00000224  00000-0  32185-4 0  9999,2 51979  53.2187  15.4008 0001293  90.8082 269.3058 15.08834242114016,6917.898,95.438,540.657,538.869,0.0
51979.0,STARLINK-3656,PAYLOAD,2024-03-23 18:23:22,15.088336,0.0001407,53.2194,13.0206,103.483,256.6319,2.7829e-05,1.55e-06,0.0,0 STARLINK-3656,1 51979U 22025Z   24083.76623744  .00000155  00000-0  27829-4 0  9991,2 51979  53.2194  13.0206 0001407 103.4830 256.6319 15.08833600112987,6917.9,95.438,540.738,538.792,0.0
51979.0,STARLINK-3656,PAYLOAD,2024-03-24 03:55:40,15.08866048,0.0001368,53.2192,11.2352,99.2651,260.8495,0.00083076,0.00012968,0.0,0 STARLINK-3656,1 51979U 22025Z   24084.16366480  .00012968  00000-0  83076-3 0  9997,2 51979  53.2192  11.2352 0001368  99.2651 260.8495 15.08866048114151,6917.801,95.436,540.612,538.719,0.0
51979.0,STARLINK-3656,PAYLOAD,2024-03-24 11:52:36,15.08854124,0.000272,53.2188,9.7501,77.6703,282.4594,0.00063838,9.89e-05,0.0,0 STARLINK-3656,1 51979U 22025Z   24084.49487171  .00009890  00000-0  63838-3 0  9998,2 51979  53.2188   9.7501 0002720  77.6703 282.4594 15.08854124114203,6917.837,95.437,541.584,537.821,0.0
51979.0,STARLINK-3656,PAYLOAD,2024-03-24 23:00:18,15.08844956,0.0001574,53.2189,7.6687,77.4288,282.688,0.00024511,3.616e-05,0.0,0 STARLINK-3656,1 51979U 22025Z   24084.95855320  .00003616  00000-0  24511-3 0  9999,2 51979  53.2189   7.6687 0001574  77.4288 282.6880 15.08844956113164,6917.865,95.437,540.819,538.641,0.0
51979.0,STARLINK-3656,PAYLOAD,2024-03-25 11:43:23,15.08844017,0.0001399,53.2188,5.2902,94.832,265.2832,3.7631e-05,3.11e-06,0.0,0 STARLINK-3656,1 51979U 22025Z   24085.48846862  .00000311  00000-0  37631-4 0  9996,2 51979  53.2188   5.2902 0001399  94.8320 265.2832 15.08844017114356,6917.868,95.437,540.701,538.765,0.0
51979.0,STARLINK-3656,PAYLOAD,2024-03-25 22:51:05,15.08836653,0.0001642,53.2199,3.2084,95.1331,264.9848,-0.00011018,-2.041e-05,0.0,0 STARLINK-3656,1 51979U 22025Z   24085.95215270 -.00002041  00000-0 -11018-3 0  9995,2 51979  53.2199   3.2084 0001642  95.1331 264.9848 15.08836653113319,6917.891,95.438,540.892,538.62,0.0
51979.0,STARLINK-3656,PAYLOAD,2024-03-26 11:34:11,15.08828636,0.0001838,53.2192,0.8308,94.2503,265.8699,-2.639e-05,-7.08e-06,0.0,0 STARLINK-3656,1 51979U 22025Z   24086.48207889 -.00000708  00000-0 -26390-4 0  9999,2 51979  53.2192   0.8308 0001838  94.2503 265.8699 15.08828636114500,6917.915,95.438,541.052,538.509,0.0
51979.0,STARLINK-3656,PAYLOAD,2024-03-26 22:41:53,15.08830704,0.0001677,53.2197,358.7472,101.3225,258.7956,9.9074e-05,1.289e-05,0.0,0 STARLINK-3656,1 51979U 22025Z   24086.94576090  .00001289  00000-0  99074-4 0  9995,2 51979  53.2197 358.7472 0001677 101.3225 258.7956 15.08830704113464,6917.909,95.438,540.934,538.614,0.0
51979.0,STARLINK-3656,PAYLOAD,2024-03-27 11:24:59,15.08833159,0.0001471,53.217,356.3712,103.5571,256.5585,0.00024525,3.617e-05,0.0,0 STARLINK-3656,1 51979U 22025Z   24087.47568447  .00003617  00000-0  24525-3 0  9996,2 51979  53.2170 356.3712 0001471 103.5571 256.5585 15.08833159113546,6917.901,95.438,540.784,538.749,0.0
51979.0,STARLINK-3656,PAYLOAD,2024-03-27 17:46:31,15.08834196,0.0001505,53.2165,355.1829,98.3888,261.7275,0.00025443,3.763e-05,0.0,0 STARLINK-3656,1 51979U 22025Z   24087.74064626  .00003763  00000-0  25443-3 0  9998,2 51979  53.2165 355.1829 0001505  98.3888 261.7275 15.08834196114699,6917.898,95.438,540.804,538.722,0.0
51979.0,STARLINK-3656,PAYLOAD,2024-03-27 22:32:41,15.08839035,0.0001454,53.2164,354.2913,98.401,261.7148,0.00032445,4.879e-05,0.0,0 STARLINK-3656,1 51979U 22025Z   24087.93936544  .00004879  00000-0  32445-3 0  9995,2 51979  53.2164 354.2913 0001454  98.4010 261.7148 15.08839035113610,6917.883,95.438,540.754,538.742,0.0
51979.0,STARLINK-3656,PAYLOAD,2024-03-28 11:15:46,15.08837985,0.00019,53.2177,351.9083,109.3999,250.7198,0.000266,3.948e-05,0.0,0 STARLINK-3656,1 51979U 22025Z   24088.46928821  .00003948  00000-0  26600-3 0  9995,2 51979  53.2177 351.9083 0001900 109.3999 250.7198 15.08837985113693,6917.887,95.438,541.066,538.437,0.0
51979.0,STARLINK-3656,PAYLOAD,2024-03-28 22:23:28,15.0884352,0.000122,53.2162,349.8307,95.5098,264.6033,0.00025827,3.825e-05,0.0,0 STARLINK-3656,1 51979U 22025Z   24088.93296515  .00003825  00000-0  25827-3 0  9999,2 51979  53.2162 349.8307 0001220  95.5098 264.6033 15.08843520113765,6917.87,95.437,540.579,538.891,0.0
51979.0,STARLINK-3656,PAYLOAD,2024-03-29 03:09:37,15.08850543,0.0001535,53.2196,348.9378,91.8631,268.2537,0.00039095,5.941e-05,0.0,0 STARLINK-3656,1 51979U 22025Z   24089.13168337  .00005941  00000-0  39095-3 0  9995,2 51979  53.2196 348.9378 0001535  91.8631 268.2537 15.08850543114900,6917.848,95.437,540.775,538.651,0.0
51979.0,STARLINK-3656,PAYLOAD,2024-03-29 22:14:14,15.08849087,0.000149,53.2193,345.3684,84.7678,275.3484,0.00024807,3.663e-05,0.0,0 STARLINK-3656,1 51979U 22025Z   24089.92656130  .00003663  00000-0  24807-3 0  9999,2 51979  53.2193 345.3684 0001490  84.7678 275.3484 15.08849087113911,6917.853,95.437,540.748,538.687,0.0
51979.0,STARLINK-3656,PAYLOAD,2024-03-30 03:00:24,15.08851913,0.0001339,53.2182,344.4754,83.8203,276.2941,0.00026221,3.889e-05,0.0,0 STARLINK-3656,1 51979U 22025Z   24090.12527929  .00003889  00000-0  26221-3 0  9998,2 51979  53.2182 344.4754 0001339  83.8203 276.2941 15.08851913115059,6917.844,95.437,540.635,538.783,0.0
51979.0,STARLINK-3656,PAYLOAD,2024-03-30 09:21:56,15.08852894,0.0001199,53.2183,343.2869,86.6207,273.4923,0.00023497,3.455e-05,0.0,0 STARLINK-3656,1 51979U 22025Z   24090.39023721  .00003455  00000-0  23497-3 0  9999,2 51979  53.2183 343.2869 0001199  86.6207 273.4923 15.08852894113981,6917.841,95.437,540.535,538.877,0.0
51979.0,STARLINK-3656,PAYLOAD,2024-03-30 20:29:39,15.08840111,0.0001592,53.2191,341.2103,98.3019,261.8154,2.2757e-05,7.4e-07,0.0,0 STARLINK-3656,1 51979U 22025Z   24090.85392436  .00000074  00000-0  22757-4 0  9995,2 51979  53.2191 341.2103 0001592  98.3019 261.8154 15.08840111115165,6917.88,95.438,540.846,538.644,0.0
51979.0,STARLINK-3656,PAYLOAD,2024-03-30 22:05:02,15.08839566,0.0001534,53.219,340.913,98.0031,262.1135,1.5063e-05,-4.8e-07,0.0,0 STARLINK-3656,1 51979U 22025Z   24090.92016374 -.00000048  00000-0  15063-4 0  9991,2 51979  53.2190 340.9130 0001534  98.0031 262.1135 15.08839566114060,6917.882,95.438,540.808,538.686,0.0
51979.0,STARLINK-3656,PAYLOAD,2024-03-31 09:12:43,15.08846456,0.0001322,53.2179,338.8296,80.4583,279.6559,0.00017312,2.469e-05,0.0,0 STARLINK-3656,1 51979U 22025Z   24091.38384075  .00002469  00000-0  17312-3 0  9994,2 51979  53.2179 338.8296 0001322  80.4583 279.6559 15.08846456114135,6917.861,95.437,540.64,538.811,0.0
